[
    {
        "Altitude(m)": 554716.0279642818,
        "Argument of Periapsis(deg)": 0.019868973332140504,
        "Eccentricity": 0.0,
        "Inclination(deg)": 53.0,
        "Latitude(deg)": 27.89628000968837,
        "Longitude(deg)": 155.99413673474152,
        "Mean Anomaly(deg)": 35.72937860273272,
        "RAAN(deg)": 234.97043010558403,
        "Satellite Name": "Starlink Shell 1 1034",
        "Satellite Number": 1034,
        "Semi-Major Axis(m)": 6931778.249405717,
        "Time(s)": 570
    },
    {
        "Altitude(m)": 554784.4689680458,
        "Argument of Periapsis(deg)": 0.02021755181165174,
        "Eccentricity": 0.0,
        "Inclination(deg)": 53.0,
        "Latitude(deg)": 28.357171917750676,
        "Longitude(deg)": 156.43654431056262,
        "Mean Anomaly(deg)": 36.35620980628947,
        "RAAN(deg)": 234.96991133550654,
        "Satellite Name": "Starlink Shell 1 1034",
        "Satellite Number": 1034,
        "Semi-Major Axis(m)": 6931778.249405717,
        "Time(s)": 580
    },
    {
        "Altitude(m)": 554854.1632953393,
        "Argument of Periapsis(deg)": 0.020566130291162974,
        "Eccentricity": 0.0,
        "Inclination(deg)": 53.0,
        "Latitude(deg)": 28.816302650008463,
        "Longitude(deg)": 156.8831367329987,
        "Mean Anomaly(deg)": 36.98304100984621,
        "RAAN(deg)": 234.96939256542913,
        "Satellite Name": "Starlink Shell 1 1034",
        "Satellite Number": 1034,
        "Semi-Major Axis(m)": 6931778.249405717,
        "Time(s)": 590
    },
    {
        "Altitude(m)": 554925.0584294116,
        "Argument of Periapsis(deg)": 0.020914708770674213,
        "Eccentricity": 0.0,
        "Inclination(deg)": 53.0,
        "Latitude(deg)": 29.273623528741012,
        "Longitude(deg)": 157.33401501407374,
        "Mean Anomaly(deg)": 37.60987221340291,
        "RAAN(deg)": 234.96887379535164,
        "Satellite Name": "Starlink Shell 1 1034",
        "Satellite Number": 1034,
        "Semi-Major Axis(m)": 6931778.249405717,
        "Time(s)": 600
    },
    {
        "Altitude(m)": 554997.1014399535,
        "Argument of Periapsis(deg)": 0.021263287250185448,
        "Eccentricity": 0.0,
        "Inclination(deg)": 53.0,
        "Latitude(deg)": 29.729084789252667,
        "Longitude(deg)": 157.78928148497312,
        "Mean Anomaly(deg)": 38.2367034169596,
        "RAAN(deg)": 234.96835502527412,
        "Satellite Name": "Starlink Shell 1 1034",
        "Satellite Number": 1034,
        "Semi-Major Axis(m)": 6931778.249405717,
        "Time(s)": 610
    },
    {
        "Altitude(m)": 555070.2390111204,
        "Argument of Periapsis(deg)": 0.021611865729696686,
        "Eccentricity": 0.0,
        "Inclination(deg)": 53.0,
        "Latitude(deg)": 30.182635548928804,
        "Longitude(deg)": 158.24904029347863,
        "Mean Anomaly(deg)": 38.8635346205163,
        "RAAN(deg)": 234.96783625519672,
        "Satellite Name": "Starlink Shell 1 1034",
        "Satellite Number": 1034,
        "Semi-Major Axis(m)": 6931778.249405717,
        "Time(s)": 620
    },
    {
        "Altitude(m)": 555144.4174697043,
        "Argument of Periapsis(deg)": 0.02196044420920792,
        "Eccentricity": 0.0,
        "Inclination(deg)": 53.0,
        "Latitude(deg)": 30.634223775893318,
        "Longitude(deg)": 158.713396216807,
        "Mean Anomaly(deg)": 39.490365824073045,
        "RAAN(deg)": 234.96731748511922,
        "Satellite Name": "Starlink Shell 1 1034",
        "Satellite Number": 1034,
        "Semi-Major Axis(m)": 6931778.249405717,
        "Time(s)": 630
    },
    {
        "Altitude(m)": 555219.5828134337,
        "Argument of Periapsis(deg)": 0.02230902268871916,
        "Eccentricity": 0.0,
        "Inclination(deg)": 53.0,
        "Latitude(deg)": 31.0837962572927,
        "Longitude(deg)": 159.18245599198033,
        "Mean Anomaly(deg)": 40.11719702762979,
        "RAAN(deg)": 234.96679871504173,
        "Satellite Name": "Starlink Shell 1 1034",
        "Satellite Number": 1034,
        "Semi-Major Axis(m)": 6931778.249405717,
        "Time(s)": 640
    },
    {
        "Altitude(m)": 555295.6807394073,
        "Argument of Periapsis(deg)": 0.022657601168230398,
        "Eccentricity": 0.0,
        "Inclination(deg)": 53.0,
        "Latitude(deg)": 31.531298567251692,
        "Longitude(deg)": 159.65632712049776,
        "Mean Anomaly(deg)": 40.74402823118649,
        "RAAN(deg)": 234.96627994496427,
        "Satellite Name": "Starlink Shell 1 1034",
        "Satellite Number": 1034,
        "Semi-Major Axis(m)": 6931778.249405717,
        "Time(s)": 650
    },
    {
        "Altitude(m)": 555372.6566726051,
        "Argument of Periapsis(deg)": 0.023006179647741636,
        "Eccentricity": 0.0,
        "Inclination(deg)": 53.0,
        "Latitude(deg)": 31.97667503453552,
        "Longitude(deg)": 160.13511834940257,
        "Mean Anomaly(deg)": 41.37085943474318,
        "RAAN(deg)": 234.96576117488678,
        "Satellite Name": "Starlink Shell 1 1034",
        "Satellite Number": 1034,
        "Semi-Major Axis(m)": 6931778.249405717,
        "Time(s)": 660
    },
    {
        "Altitude(m)": 555450.4557945179,
        "Argument of Periapsis(deg)": 0.023354758127252868,
        "Eccentricity": 0.0,
        "Inclination(deg)": 53.0,
        "Latitude(deg)": 32.419868709969094,
        "Longitude(deg)": 160.61894014741938,
        "Mean Anomaly(deg)": 41.99769063829988,
        "RAAN(deg)": 234.96524240480932,
        "Satellite Name": "Starlink Shell 1 1034",
        "Satellite Number": 1034,
        "Semi-Major Axis(m)": 6931778.249405717,
        "Time(s)": 670
    },
    {
        "Altitude(m)": 555529.0230718292,
        "Argument of Periapsis(deg)": 0.023703336606764106,
        "Eccentricity": 0.0,
        "Inclination(deg)": 53.0,
        "Latitude(deg)": 32.86082133366905,
        "Longitude(deg)": 161.10790366291297,
        "Mean Anomaly(deg)": 42.62452184185663,
        "RAAN(deg)": 234.96472363473185,
        "Satellite Name": "Starlink Shell 1 1034",
        "Satellite Number": 1034,
        "Semi-Major Axis(m)": 6931778.249405717,
        "Time(s)": 680
    },
    {
        "Altitude(m)": 555608.3032851651,
        "Argument of Periapsis(deg)": 0.024051915086275345,
        "Eccentricity": 0.0,
        "Inclination(deg)": 53.0,
        "Latitude(deg)": 33.29947330214391,
        "Longitude(deg)": 161.60212118902416,
        "Mean Anomaly(deg)": 43.251353045413374,
        "RAAN(deg)": 234.96420486465436,
        "Satellite Name": "Starlink Shell 1 1034",
        "Satellite Number": 1034,
        "Semi-Major Axis(m)": 6931778.249405717,
        "Time(s)": 690
    },
    {
        "Altitude(m)": 555688.2410579054,
        "Argument of Periapsis(deg)": 0.024400493565786583,
        "Eccentricity": 0.0,
        "Inclination(deg)": 53.0,
        "Latitude(deg)": 33.7357636353315,
        "Longitude(deg)": 162.10170662269556,
        "Mean Anomaly(deg)": 43.87818424897007,
        "RAAN(deg)": 234.96368609457687,
        "Satellite Name": "Starlink Shell 1 1034",
        "Satellite Number": 1034,
        "Semi-Major Axis(m)": 6931778.249405717,
        "Time(s)": 700
    },
    {
        "Altitude(m)": 555768.7808849928,
        "Argument of Periapsis(deg)": 0.024749072045297815,
        "Eccentricity": 0.0,
        "Inclination(deg)": 53.0,
        "Latitude(deg)": 34.16962994365087,
        "Longitude(deg)": 162.60677440427685,
        "Mean Anomaly(deg)": 44.50501545252676,
        "RAAN(deg)": 234.96316732449947,
        "Satellite Name": "Starlink Shell 1 1034",
        "Satellite Number": 1034,
        "Semi-Major Axis(m)": 6931778.249405717,
        "Time(s)": 710
    },
    {
        "Altitude(m)": 555849.8671617821,
        "Argument of Periapsis(deg)": 0.025097650524809053,
        "Eccentricity": 0.0,
        "Inclination(deg)": 53.0,
        "Latitude(deg)": 34.60100839514586,
        "Longitude(deg)": 163.11743996300655,
        "Mean Anomaly(deg)": 45.13184665608346,
        "RAAN(deg)": 234.96264855442197,
        "Satellite Name": "Starlink Shell 1 1034",
        "Satellite Number": 1034,
        "Semi-Major Axis(m)": 6931778.249405717,
        "Time(s)": 720
    },
    {
        "Altitude(m)": 555931.4442129,
        "Argument of Periapsis(deg)": 0.02544622900432029,
        "Eccentricity": 0.0,
        "Inclination(deg)": 53.0,
        "Latitude(deg)": 35.029833682813596,
        "Longitude(deg)": 163.63382015501824,
        "Mean Anomaly(deg)": 45.75867785964021,
        "RAAN(deg)": 234.96212978434446,
        "Satellite Name": "Starlink Shell 1 1034",
        "Satellite Number": 1034,
        "Semi-Major Axis(m)": 6931778.249405717,
        "Time(s)": 730
    },
    {
        "Altitude(m)": 556013.4563210729,
        "Argument of Periapsis(deg)": 0.02579480748383153,
        "Eccentricity": 0.0,
        "Inclination(deg)": 53.0,
        "Latitude(deg)": 35.45603899222124,
        "Longitude(deg)": 164.15603218050495,
        "Mean Anomaly(deg)": 46.385509063196956,
        "RAAN(deg)": 234.96161101426702,
        "Satellite Name": "Starlink Shell 1 1034",
        "Satellite Number": 1034,
        "Semi-Major Axis(m)": 6931778.249405717,
        "Time(s)": 740
    },
    {
        "Altitude(m)": 556095.8477559326,
        "Argument of Periapsis(deg)": 0.026143385963342765,
        "Eccentricity": 0.0,
        "Inclination(deg)": 53.0,
        "Latitude(deg)": 35.87955596951463,
        "Longitude(deg)": 164.68419400527364,
        "Mean Anomaly(deg)": 47.0123402667536,
        "RAAN(deg)": 234.96109224418956,
        "Satellite Name": "Starlink Shell 1 1034",
        "Satellite Number": 1034,
        "Semi-Major Axis(m)": 6931778.249405717,
        "Time(s)": 750
    }
]